STARLINK-2022           
1 47643U 21012Z   24211.85247442  .00000718  00000+0  67096-4 0  9993
2 47643  53.0539 170.5224 0001655  89.5542 270.5636 15.06398844191145
